start=new Date('2023-05-04T00:00:00.000Z').valueOf();
sats=[{"OBJECT_NAME":"STARLINK-4609","OBJECT_ID":"2022-104AH","CENTER_NAME":"EARTH","MEAN_MOTION":"15.08840104","BSTAR":"0.00018927000000","OBJECT_TYPE":"PAYLOAD","REV_AT_EPOCH":"3847","RA_OF_ASC_NODE":"227.5190","MEAN_ELEMENT_THEORY":"SGP4","MEAN_MOTION_DOT":"0.00002726","ELEMENT_SET_NO":"999","APOAPSIS":"540.440","FILE":"3900281","GP_ID":"231199074","PERIOD":"95.438","MEAN_MOTION_DDOT":"0.0000000000000","DECAY_DATE":null,"CLASSIFICATION_TYPE":"U","EPOCH":"2023-05-03T15:37:45.084000","RCS_SIZE":"LARGE","SITE":"AFETR","NORAD_CAT_ID":"53619","INCLINATION":"53.2178","ECCENTRICITY":"0.00010040","TLE_LINE2":"2 53619  53.2178 227.5190 0001004 103.8749 256.2355 15.08840104 38476","PERIAPSIS":"539.051","REF_FRAME":"TEME","TLE_LINE1":"1 53619U 22104AH  23123.65121625  .00002726  00000-0  18927-3 0  9999","ARG_OF_PERICENTER":"103.8749","SEMIMAJOR_AXIS":"6917.880","LAUNCH_DATE":"2022-08-28","TIME_SYSTEM":"UTC","MEAN_ANOMALY":"256.2355","EPHEMERIS_TYPE":"0","COUNTRY_CODE":"US"},{"OBJECT_TYPE":"PAYLOAD","MEAN_ELEMENT_THEORY":"SGP4","REV_AT_EPOCH":"3859","RA_OF_ASC_NODE":"227.1297","MEAN_MOTION_DOT":"0.00001072","ELEMENT_SET_NO":"999","APOAPSIS":"540.236","OBJECT_ID":"2022-104AJ","OBJECT_NAME":"STARLINK-4615","BSTAR":"0.00008539500000","CENTER_NAME":"EARTH","MEAN_MOTION":"15.08838486","TLE_LINE1":"1 53620U 22104AJ  23123.70271946  .00001072  00000-0  85395-4 0  9996","ARG_OF_PERICENTER":"101.8716","REF_FRAME":"TEME","LAUNCH_DATE":"2022-08-28","SEMIMAJOR_AXIS":"6917.885","TIME_SYSTEM":"UTC","COUNTRY_CODE":"US","MEAN_ANOMALY":"258.2355","EPHEMERIS_TYPE":"0","CLASSIFICATION_TYPE":"U","DECAY_DATE":null,"EPOCH":"2023-05-03T16:51:54.961344","RCS_SIZE":"MEDIUM","SITE":"AFETR","PERIOD":"95.438","GP_ID":"231199324","FILE":"3900281","MEAN_MOTION_DDOT":"0.0000000000000","ECCENTRICITY":"0.00007020","NORAD_CAT_ID":"53620","INCLINATION":"53.2156","TLE_LINE2":"2 53620  53.2156 227.1297 0000702 101.8716 258.2355 15.08838486 38599","PERIAPSIS":"539.264"},{"CENTER_NAME":"EARTH","MEAN_MOTION":"15.08851373","BSTAR":"0.00046753000000","OBJECT_NAME":"STARLINK-4608","OBJECT_ID":"2022-104AK","ELEMENT_SET_NO":"999","APOAPSIS":"540.357","OBJECT_TYPE":"PAYLOAD","RA_OF_ASC_NODE":"227.1973","REV_AT_EPOCH":"3848","MEAN_ELEMENT_THEORY":"SGP4","MEAN_MOTION_DOT":"0.00007163","TLE_LINE2":"2 53621  53.2154 227.1973 0000934  65.4400 294.6689 15.08851373 38483","PERIAPSIS":"539.064","PERIOD":"95.437","GP_ID":"231199575","FILE":"3900281","MEAN_MOTION_DDOT":"0.0000000000000","DECAY_DATE":null,"EPOCH":"2023-05-03T17:07:49.710720","CLASSIFICATION_TYPE":"U","RCS_SIZE":"LARGE","SITE":"AFETR","NORAD_CAT_ID":"53621","INCLINATION":"53.2154","ECCENTRICITY":"0.00009340","TIME_SYSTEM":"UTC","MEAN_ANOMALY":"294.6689","EPHEMERIS_TYPE":"0","COUNTRY_CODE":"US","REF_FRAME":"TEME","TLE_LINE1":"1 53621U 22104AK  23123.71376980  .00007163  00000-0  46753-3 0  9993","ARG_OF_PERICENTER":"65.4400","SEMIMAJOR_AXIS":"6917.846","LAUNCH_DATE":"2022-08-28"},{"CENTER_NAME":"EARTH","MEAN_MOTION":"15.08838958","BSTAR":"-0.00008101900000","OBJECT_NAME":"STARLINK-4568","OBJECT_ID":"2022-104AL","ELEMENT_SET_NO":"999","APOAPSIS":"540.365","OBJECT_TYPE":"PAYLOAD","REV_AT_EPOCH":"3859","RA_OF_ASC_NODE":"227.0884","MEAN_ELEMENT_THEORY":"SGP4","MEAN_MOTION_DOT":"-0.00001577","TLE_LINE2":"2 53622  53.2176 227.0884 0000891  94.0993 266.0101 15.08838958 38593","PERIAPSIS":"539.132","GP_ID":"231200323","FILE":"3900281","PERIOD":"95.438","MEAN_MOTION_DDOT":"0.0000000000000","EPOCH":"2023-05-03T16:42:41.201280","DECAY_DATE":null,"CLASSIFICATION_TYPE":"U","RCS_SIZE":"LARGE","SITE":"AFETR","NORAD_CAT_ID":"53622","INCLINATION":"53.2176","ECCENTRICITY":"0.00008910","TIME_SYSTEM":"UTC","MEAN_ANOMALY":"266.0101","EPHEMERIS_TYPE":"0","COUNTRY_CODE":"US","REF_FRAME":"TEME","TLE_LINE1":"1 53622U 22104AL  23123.69631020 -.00001577  00000-0 -81019-4 0  9990","ARG_OF_PERICENTER":"94.0993","SEMIMAJOR_AXIS":"6917.884","LAUNCH_DATE":"2022-08-28"},{"SEMIMAJOR_AXIS":"6917.888","LAUNCH_DATE":"2022-08-28","REF_FRAME":"TEME","TLE_LINE1":"1 53623U 22104AM  23123.70640522  .00000140  00000-0  26902-4 0  9993","ARG_OF_PERICENTER":"117.2229","MEAN_ANOMALY":"242.8850","EPHEMERIS_TYPE":"0","COUNTRY_CODE":"US","TIME_SYSTEM":"UTC","NORAD_CAT_ID":"53623","INCLINATION":"53.2167","ECCENTRICITY":"0.00008460","GP_ID":"231198575","PERIOD":"95.438","FILE":"3900281","MEAN_MOTION_DDOT":"0.0000000000000","DECAY_DATE":null,"CLASSIFICATION_TYPE":"U","EPOCH":"2023-05-03T16:57:13.411008","RCS_SIZE":"LARGE","SITE":"AFETR","PERIAPSIS":"539.168","TLE_LINE2":"2 53623  53.2167 227.1507 0000846 117.2229 242.8850 15.08837545 38591","RA_OF_ASC_NODE":"227.1507","MEAN_ELEMENT_THEORY":"SGP4","REV_AT_EPOCH":"3859","MEAN_MOTION_DOT":"0.00000140","OBJECT_TYPE":"PAYLOAD","APOAPSIS":"540.338","ELEMENT_SET_NO":"999","OBJECT_NAME":"STARLINK-4573","OBJECT_ID":"2022-104AM","CENTER_NAME":"EARTH","MEAN_MOTION":"15.08837545","BSTAR":"0.00002690200000"},{"SEMIMAJOR_AXIS":"6917.889","LAUNCH_DATE":"2022-08-28","REF_FRAME":"TEME","ARG_OF_PERICENTER":"78.1964","TLE_LINE1":"1 53624U 22104AN  23123.69535433  .00000094  00000-0  24015-4 0  9997","MEAN_ANOMALY":"281.9160","EPHEMERIS_TYPE":"0","COUNTRY_CODE":"US","TIME_SYSTEM":"UTC","INCLINATION":"53.2153","NORAD_CAT_ID":"53624","ECCENTRICITY":"0.00011840","MEAN_MOTION_DDOT":"0.0000000000000","FILE":"3900281","GP_ID":"231198825","PERIOD":"95.438","SITE":"AFETR","RCS_SIZE":"LARGE","CLASSIFICATION_TYPE":"U","DECAY_DATE":null,"EPOCH":"2023-05-03T16:41:18.614112","PERIAPSIS":"538.935","TLE_LINE2":"2 53624  53.2153 227.0846 0001184  78.1964 281.9160 15.08837296 38590","MEAN_MOTION_DOT":"0.00000094","MEAN_ELEMENT_THEORY":"SGP4","RA_OF_ASC_NODE":"227.0846","REV_AT_EPOCH":"3859","OBJECT_TYPE":"PAYLOAD","APOAPSIS":"540.573","ELEMENT_SET_NO":"999","OBJECT_NAME":"STARLINK-4596","OBJECT_ID":"2022-104AN","MEAN_MOTION":"15.08837296","CENTER_NAME":"EARTH","BSTAR":"0.00002401500000"},{"TIME_SYSTEM":"UTC","EPHEMERIS_TYPE":"0","MEAN_ANOMALY":"280.5195","COUNTRY_CODE":"US","REF_FRAME":"TEME","TLE_LINE1":"1 53625U 22104AP  23123.69903475  .00005860  00000-0  38599-3 0  9990","ARG_OF_PERICENTER":"79.5896","SEMIMAJOR_AXIS":"6917.883","LAUNCH_DATE":"2022-08-28","TLE_LINE2":"2 53625  53.2158 227.1074 0000878  79.5896 280.5195 15.08839268 38592","PERIAPSIS":"539.140","PERIOD":"95.438","GP_ID":"231200074","FILE":"3900281","MEAN_MOTION_DDOT":"0.0000000000000","DECAY_DATE":null,"CLASSIFICATION_TYPE":"U","EPOCH":"2023-05-03T16:46:36.602400","RCS_SIZE":"LARGE","SITE":"AFETR","NORAD_CAT_ID":"53625","INCLINATION":"53.2158","ECCENTRICITY":"0.00008780","ELEMENT_SET_NO":"999","APOAPSIS":"540.355","OBJECT_TYPE":"PAYLOAD","RA_OF_ASC_NODE":"227.1074","REV_AT_EPOCH":"3859","MEAN_ELEMENT_THEORY":"SGP4","MEAN_MOTION_DOT":"0.00005860","CENTER_NAME":"EARTH","MEAN_MOTION":"15.08839268","BSTAR":"0.00038599000000","OBJECT_NAME":"STARLINK-4603","OBJECT_ID":"2022-104AP"},{"REV_AT_EPOCH":"3859","MEAN_ELEMENT_THEORY":"SGP4","RA_OF_ASC_NODE":"227.3114","MEAN_MOTION_DOT":"-0.00001857","OBJECT_TYPE":"PAYLOAD","APOAPSIS":"540.487","ELEMENT_SET_NO":"999","OBJECT_NAME":"STARLINK-4554","OBJECT_ID":"2022-104AQ","CENTER_NAME":"EARTH","MEAN_MOTION":"15.08826255","BSTAR":"-0.00009863400000","SEMIMAJOR_AXIS":"6917.922","LAUNCH_DATE":"2022-08-28","REF_FRAME":"TEME","TLE_LINE1":"1 53626U 22104AQ  23123.61806349 -.00001857  00000-0 -98634-4 0  9996","ARG_OF_PERICENTER":"87.9884","MEAN_ANOMALY":"272.1224","EPHEMERIS_TYPE":"0","COUNTRY_CODE":"US","TIME_SYSTEM":"UTC","NORAD_CAT_ID":"53626","INCLINATION":"53.2166","ECCENTRICITY":"0.00010120","GP_ID":"231199824","FILE":"3900281","PERIOD":"95.438","MEAN_MOTION_DDOT":"0.0000000000000","CLASSIFICATION_TYPE":"U","DECAY_DATE":null,"EPOCH":"2023-05-03T14:50:00.685536","SITE":"AFETR","RCS_SIZE":"LARGE","PERIAPSIS":"539.087","TLE_LINE2":"2 53626  53.2166 227.3114 0001012  87.9884 272.1224 15.08826255 38592"},{"BSTAR":"-0.00001039400000","MEAN_MOTION":"15.08838125","CENTER_NAME":"EARTH","OBJECT_ID":"2022-104AR","OBJECT_NAME":"STARLINK-4595","APOAPSIS":"540.594","ELEMENT_SET_NO":"999","MEAN_MOTION_DOT":"-0.00000453","REV_AT_EPOCH":"3861","MEAN_ELEMENT_THEORY":"SGP4","RA_OF_ASC_NODE":"226.7612","OBJECT_TYPE":"PAYLOAD","PERIAPSIS":"538.908","TLE_LINE2":"2 53627  53.2168 226.7612 0001219 124.7904 235.3203 15.08838125 38613","ECCENTRICITY":"0.00012190","INCLINATION":"53.2168","NORAD_CAT_ID":"53627","RCS_SIZE":"LARGE","SITE":"AFETR","CLASSIFICATION_TYPE":"U","DECAY_DATE":null,"EPOCH":"2023-05-03T18:11:23.090496","MEAN_MOTION_DDOT":"0.0000000000000","PERIOD":"95.438","GP_ID":"231199075","FILE":"3900281","COUNTRY_CODE":"US","EPHEMERIS_TYPE":"0","MEAN_ANOMALY":"235.3203","TIME_SYSTEM":"UTC","LAUNCH_DATE":"2022-08-28","SEMIMAJOR_AXIS":"6917.886","ARG_OF_PERICENTER":"124.7904","TLE_LINE1":"1 53627U 22104AR  23123.75790614 -.00000453  00000-0 -10394-4 0  9997","REF_FRAME":"TEME"},{"TIME_SYSTEM":"UTC","EPHEMERIS_TYPE":"0","MEAN_ANOMALY":"276.7685","COUNTRY_CODE":"US","REF_FRAME":"TEME","ARG_OF_PERICENTER":"83.3415","TLE_LINE1":"1 53628U 22104AS  23123.61068841  .00002012  00000-0  14442-3 0  9991","SEMIMAJOR_AXIS":"6917.876","LAUNCH_DATE":"2022-08-28","TLE_LINE2":"2 53628  53.2158 227.2666 0000953  83.3415 276.7685 15.08841551 38596","PERIAPSIS":"539.081","MEAN_MOTION_DDOT":"0.0000000000000","GP_ID":"231199325","FILE":"3900281","PERIOD":"95.437","SITE":"AFETR","RCS_SIZE":"LARGE","CLASSIFICATION_TYPE":"U","DECAY_DATE":null,"EPOCH":"2023-05-03T14:39:23.478624","INCLINATION":"53.2158","NORAD_CAT_ID":"53628","ECCENTRICITY":"0.00009530","ELEMENT_SET_NO":"999","APOAPSIS":"540.400","OBJECT_TYPE":"PAYLOAD","MEAN_MOTION_DOT":"0.00002012","RA_OF_ASC_NODE":"227.2666","MEAN_ELEMENT_THEORY":"SGP4","REV_AT_EPOCH":"3859","MEAN_MOTION":"15.08841551","CENTER_NAME":"EARTH","BSTAR":"0.00014442000000","OBJECT_NAME":"STARLINK-4600","OBJECT_ID":"2022-104AS"}];
